*******************************************************************************
 Revised: Jun 15, 2007             Pioneer 11 Spacecraft / (Sun)            -24
                       http://nssdc.gsfc.nasa.gov/nmc/tmp/1973-019A.html

 BACKGROUND:

  This mission was the 2nd sent to the Jupiter system and the first to 
  investigate the planet Saturn and its ring system. 

  Closest approach to Jupiter cloud-tops was 42,000 km on Dec 3, 1974. It came 
  within 21,000 km of Saturn's cloud-tops on Sep 1, 1979. Pioneer 11, like 
  Pioneer 10, used Jupiter's gravitational field to alter its trajectory.

  Science operations and daily telemetry ceased on September 30, 1995 when the 
  RTG power level was insufficient to operate any experiments.

          Launched            : 1973-04-06 at 02:11:00 UTC
          On-orbit dry mass   : 259 kg
          Nominal Power Output: 165 W

 SPACECRAFT TRAJECTORY:

  Trajectory provided by JPL Navigation Team.  JPL Multimission NAV and Solar 
  System Dynamics Group source files:
 
       PN11A, PN11AB ("AB" is not a typo), PN11C, PN11D, PN11E, 
       PN11FE ("FE" is not a typo), PN11G, DE118
 
  The circumstances pertaining to the regeneration of the spacecraft
  trajectory source files, PN11*, are not well known.
 
  DE118 is a standard JPL planet ephemeris for the P11 Jupiter encounter.

  NOTE: This trajectory is suitable for general historical purposes, but should
  be used cautiously for high precision or tracking data applications. This is 
  due to potential dynamical mismatches between the Pioneer-11 era models 
  and the current modern solutions used by Horizons; for example, the old 
  DE-118 planetary ephemeris solution and the Lieske E3 satellite theory of     
  JUP035, SAT050, etc., as compared to what is used now. 

  For example, if the Pioneer-11 solutions used here incorporate planet or 
  satellite ephemeris corrections estimated at the time, distance from the 
  satellites returned by Horizons could be slightly different relative to 
  the original solutions. However, the coordinate system transformation from 
  the original DE-118 planetary ephemeris to the modern ICRF frame IS known 
  and computed by Horizons.
*******************************************************************************
 
 
*******************************************************************************
Ephemeris / WWW_USER Thu Aug 15 22:57:16 2019 Pasadena, USA      / Horizons    
*******************************************************************************
Target body name: Pioneer 11 (spacecraft) (-24)   {source: pioneer_11}
Center body name: Solar System Barycenter (0)     {source: DE431mx}
Center-site name: BODYCENTRIC
*******************************************************************************
Start time      : A.D. 1973-Apr-07 00:00:00.0000 UT      
Stop  time      : A.D. 2030-Jan-01 00:00:00.0000 UT      
Step-size       : 1440 minutes
*******************************************************************************
Target pole/equ : No model available
Target radii    : (unavailable)                                                
Center geodetic : 0.00000000,0.00000000,0.0000000 {E-lon(deg),Lat(deg),Alt(km)}
Center cylindric: 0.00000000,0.00000000,0.0000000 {E-lon(deg),Dxy(km),Dz(km)}
Center pole/equ : ICRF/J2000.0
Center radii    : (undefined)                                                  
Target primary  : Earth
Vis. interferer : None
Rel. light bend : Sun                             {source: pioneer_11}
Rel. lght bnd GM: 1.3271E+11 km^3/s^2                                          
Atmos refraction: NO (AIRLESS)
RA format       : DEG
Time format     : CAL 
EOP file        : eop.190815.p191106                                           
EOP coverage    : DATA-BASED 1962-JAN-20 TO 2019-AUG-15. PREDICTS-> 2019-NOV-05
Units conversion: 1 au= 149597870.700 km, c= 299792.458 km/s, 1 day= 86400.0 s 
Table cut-offs 1: Elevation (-90.0deg=NO ),Airmass     n.a.    , Daylight (NO )
Table cut-offs 2: Solar elongation (  0.0,180.0=NO ),Local Hour Angle( 0.0=NO )
Table cut-offs 3: RA/DEC angular rate (     0.0=NO )                           
*******************************************************************************
 Date__(UT)__HR:MN:SS                delta     GlxLon     GlxLat
****************************************************************
$$SOE
 1999-Nov-17 00:00:00     8.1039090624E+09  22.529804   2.082984
 1999-Nov-18 00:00:00     8.1049053106E+09  22.530521   2.081308
 1999-Nov-19 00:00:00     8.1059015519E+09  22.531238   2.079633
 1999-Nov-20 00:00:00     8.1068977863E+09  22.531954   2.077957
 1999-Nov-21 00:00:00     8.1078940138E+09  22.532671   2.076282
 1999-Nov-22 00:00:00     8.1088902344E+09  22.533387   2.074608
 1999-Nov-23 00:00:00     8.1098864481E+09  22.534102   2.072934
 1999-Nov-24 00:00:00     8.1108826549E+09  22.534818   2.071260
 1999-Nov-25 00:00:00     8.1118788548E+09  22.535534   2.069587
 1999-Nov-26 00:00:00     8.1128750478E+09  22.536249   2.067915
 1999-Nov-27 00:00:00     8.1138712339E+09  22.536964   2.066242
 1999-Nov-28 00:00:00     8.1148674130E+09  22.537679   2.064570
 1999-Nov-29 00:00:00     8.1158635853E+09  22.538394   2.062899
 1999-Nov-30 00:00:00     8.1168597507E+09  22.539109   2.061228
 1999-Dec-01 00:00:00     8.1178559092E+09  22.539823   2.059557
 1999-Dec-02 00:00:00     8.1188520607E+09  22.540538   2.057887
 1999-Dec-03 00:00:00     8.1198482054E+09  22.541252   2.056217
 1999-Dec-04 00:00:00     8.1208443432E+09  22.541966   2.054547
 1999-Dec-05 00:00:00     8.1218404741E+09  22.542679   2.052878
 1999-Dec-06 00:00:00     8.1228365980E+09  22.543393   2.051209
 1999-Dec-07 00:00:00     8.1238327151E+09  22.544106   2.049541
 1999-Dec-08 00:00:00     8.1248288253E+09  22.544820   2.047873
 1999-Dec-09 00:00:00     8.1258249286E+09  22.545533   2.046206
 1999-Dec-10 00:00:00     8.1268210250E+09  22.546246   2.044539
 1999-Dec-11 00:00:00     8.1278171145E+09  22.546958   2.042872
 1999-Dec-12 00:00:00     8.1288131971E+09  22.547671   2.041206
 1999-Dec-13 00:00:00     8.1298092729E+09  22.548383   2.039540
 1999-Dec-14 00:00:00     8.1308053417E+09  22.549095   2.037875
 1999-Dec-15 00:00:00     8.1318014036E+09  22.549807   2.036210
 1999-Dec-16 00:00:00     8.1327974587E+09  22.550519   2.034545
 1999-Dec-17 00:00:00     8.1337935068E+09  22.551231   2.032881
 1999-Dec-18 00:00:00     8.1347895481E+09  22.551942   2.031217
 1999-Dec-19 00:00:00     8.1357855825E+09  22.552654   2.029554
 1999-Dec-20 00:00:00     8.1367816100E+09  22.553365   2.027891
 1999-Dec-21 00:00:00     8.1377776306E+09  22.554076   2.026228
 1999-Dec-22 00:00:00     8.1387736443E+09  22.554787   2.024566
 1999-Dec-23 00:00:00     8.1397696512E+09  22.555497   2.022904
 1999-Dec-24 00:00:00     8.1407656511E+09  22.556208   2.021243
 1999-Dec-25 00:00:00     8.1417616442E+09  22.556918   2.019582
 1999-Dec-26 00:00:00     8.1427576304E+09  22.557628   2.017922
 1999-Dec-27 00:00:00     8.1437536097E+09  22.558338   2.016261
 1999-Dec-28 00:00:00     8.1447495821E+09  22.559048   2.014602
 1999-Dec-29 00:00:00     8.1457455477E+09  22.559757   2.012942
 1999-Dec-30 00:00:00     8.1467415063E+09  22.560467   2.011283
 1999-Dec-31 00:00:00     8.1477374581E+09  22.561176   2.009625
 2000-Jan-01 00:00:00     8.1487334030E+09  22.561885   2.007967
 2000-Jan-02 00:00:00     8.1497293411E+09  22.562594   2.006309
 2000-Jan-03 00:00:00     8.1507252722E+09  22.563302   2.004652
 2000-Jan-04 00:00:00     8.1517211965E+09  22.564011   2.002995
 2000-Jan-05 00:00:00     8.1527171139E+09  22.564719   2.001339
 2000-Jan-06 00:00:00     8.1537130245E+09  22.565427   1.999682
 2000-Jan-07 00:00:00     8.1547089282E+09  22.566135   1.998027
 2000-Jan-08 00:00:00     8.1557048250E+09  22.566843   1.996371
 2000-Jan-09 00:00:00     8.1567007149E+09  22.567551   1.994717
 2000-Jan-10 00:00:00     8.1576965980E+09  22.568258   1.993062
 2000-Jan-11 00:00:00     8.1586924742E+09  22.568966   1.991408
 2000-Jan-12 00:00:00     8.1596883436E+09  22.569673   1.989754
 2000-Jan-13 00:00:00     8.1606842060E+09  22.570380   1.988101
 2000-Jan-14 00:00:00     8.1616800617E+09  22.571087   1.986448
 2000-Jan-15 00:00:00     8.1626759104E+09  22.571793   1.984796
 2000-Jan-16 00:00:00     8.1636717523E+09  22.572500   1.983144
 2000-Jan-17 00:00:00     8.1646675874E+09  22.573206   1.981492
 2000-Jan-18 00:00:00     8.1656634155E+09  22.573912   1.979841
 2000-Jan-19 00:00:00     8.1666592369E+09  22.574618   1.978190
 2000-Jan-20 00:00:00     8.1676550513E+09  22.575324   1.976540
 2000-Jan-21 00:00:00     8.1686508589E+09  22.576029   1.974890
 2000-Jan-22 00:00:00     8.1696466597E+09  22.576735   1.973240
 2000-Jan-23 00:00:00     8.1706424535E+09  22.577440   1.971591
 2000-Jan-24 00:00:00     8.1716382406E+09  22.578145   1.969942
 2000-Jan-25 00:00:00     8.1726340207E+09  22.578850   1.968294
 2000-Jan-26 00:00:00     8.1736297940E+09  22.579554   1.966645
 2000-Jan-27 00:00:00     8.1746255605E+09  22.580259   1.964998
 2000-Jan-28 00:00:00     8.1756213201E+09  22.580963   1.963351
 2000-Jan-29 00:00:00     8.1766170729E+09  22.581667   1.961704
 2000-Jan-30 00:00:00     8.1776128188E+09  22.582371   1.960057
 2000-Jan-31 00:00:00     8.1786085578E+09  22.583075   1.958411
 2000-Feb-01 00:00:00     8.1796042900E+09  22.583779   1.956766
 2000-Feb-02 00:00:00     8.1806000154E+09  22.584483   1.955120
 2000-Feb-03 00:00:00     8.1815957339E+09  22.585186   1.953476
 2000-Feb-04 00:00:00     8.1825914455E+09  22.585889   1.951831
 2000-Feb-05 00:00:00     8.1835871503E+09  22.586592   1.950187
 2000-Feb-06 00:00:00     8.1845828483E+09  22.587295   1.948544
 2000-Feb-07 00:00:00     8.1855785394E+09  22.587997   1.946900
 2000-Feb-08 00:00:00     8.1865742237E+09  22.588700   1.945258
 2000-Feb-09 00:00:00     8.1875699011E+09  22.589402   1.943615
 2000-Feb-10 00:00:00     8.1885655717E+09  22.590104   1.941973
